[
  {
    "OBJECT_NAME": "STARLINK-5305",
    "OBJECT_ID": "23010AX",
    "EPOCH": "2025-11-11T06:37:54.535296",
    "MEAN_MOTION": 14.98331792,
    "ECCENTRICITY": 0.0003104,
    "INCLINATION": 69.9977,
    "RA_OF_ASC_NODE": 303.0722,
    "ARG_OF_PERICENTER": 268.9884,
    "MEAN_ANOMALY": 91.0919,
    "EPHEMERIS_TYPE": 0,
    "CLASSIFICATION_TYPE": "U",
    "NORAD_CAT_ID": 55314,
    "ELEMENT_SET_NO": 999,
    "REV_AT_EPOCH": 15690,
    "BSTAR": 0.0001089,
    "MEAN_MOTION_DOT": 1.207e-05,
    "MEAN_MOTION_DDOT": 0.0,
    "TLE_LINE1": "1 55314U 23010AX  25315.27632564  .00001207  00000+0  10890-3 0  9995",
    "TLE_LINE2": "2 55314  69.9977 303.0722 0003104 268.9884  91.0919 14.98331792156904",
    "COMMENT": "Grouped by shell and plane from TLE"
  },
  {
    "OBJECT_NAME": "STARLINK-5257",
    "OBJECT_ID": "23010AZ",
    "EPOCH": "2025-11-11T05:55:51.889440",
    "MEAN_MOTION": 14.98325131,
    "ECCENTRICITY": 0.0003133,
    "INCLINATION": 69.9979,
    "RA_OF_ASC_NODE": 302.9884,
    "ARG_OF_PERICENTER": 268.0216,
    "MEAN_ANOMALY": 92.0584,
    "EPHEMERIS_TYPE": 0,
    "CLASSIFICATION_TYPE": "U",
    "NORAD_CAT_ID": 55316,
    "ELEMENT_SET_NO": 999,
    "REV_AT_EPOCH": 15690,
    "BSTAR": 0.00021297,
    "MEAN_MOTION_DOT": 2.449e-05,
    "MEAN_MOTION_DDOT": 0.0,
    "TLE_LINE1": "1 55316U 23010AZ  25315.24712835  .00002449  00000+0  21297-3 0  9996",
    "TLE_LINE2": "2 55316  69.9979 302.9884 0003133 268.0216  92.0584 14.98325131156906",
    "COMMENT": "Grouped by shell and plane from TLE"
  },
  {
    "OBJECT_NAME": "STARLINK-5265",
    "OBJECT_ID": "23010BA",
    "EPOCH": "2025-11-11T06:25:53.662080",
    "MEAN_MOTION": 14.98344412,
    "ECCENTRICITY": 0.0003575,
    "INCLINATION": 69.9977,
    "RA_OF_ASC_NODE": 303.0719,
    "ARG_OF_PERICENTER": 266.3623,
    "MEAN_ANOMALY": 93.7128,
    "EPHEMERIS_TYPE": 0,
    "CLASSIFICATION_TYPE": "U",
    "NORAD_CAT_ID": 55317,
    "ELEMENT_SET_NO": 999,
    "REV_AT_EPOCH": 15690,
    "BSTAR": 0.00011555,
    "MEAN_MOTION_DOT": 1.286e-05,
    "MEAN_MOTION_DDOT": 0.0,
    "TLE_LINE1": "1 55317U 23010BA  25315.26798220  .00001286  00000+0  11555-3 0  9995",
    "TLE_LINE2": "2 55317  69.9977 303.0719 0003575 266.3623  93.7128 14.98344412156902",
    "COMMENT": "Grouped by shell and plane from TLE"
  },
  {
    "OBJECT_NAME": "STARLINK-5180",
    "OBJECT_ID": "23010BB",
    "EPOCH": "2025-11-11T06:19:52.645728",
    "MEAN_MOTION": 14.98332665,
    "ECCENTRICITY": 0.0002949,
    "INCLINATION": 69.9981,
    "RA_OF_ASC_NODE": 303.0294,
    "ARG_OF_PERICENTER": 268.6778,
    "MEAN_ANOMALY": 91.4043,
    "EPHEMERIS_TYPE": 0,
    "CLASSIFICATION_TYPE": "U",
    "NORAD_CAT_ID": 55318,
    "ELEMENT_SET_NO": 999,
    "REV_AT_EPOCH": 15690,
    "BSTAR": 6.1804e-05,
    "MEAN_MOTION_DOT": 6.45e-06,
    "MEAN_MOTION_DDOT": 0.0,
    "TLE_LINE1": "1 55318U 23010BB  25315.26380377  .00000645  00000+0  61804-4 0  9997",
    "TLE_LINE2": "2 55318  69.9981 303.0294 0002949 268.6778  91.4043 14.98332665156904",
    "COMMENT": "Grouped by shell and plane from TLE"
  },
  {
    "OBJECT_NAME": "STARLINK-5196",
    "OBJECT_ID": "23010BC",
    "EPOCH": "2025-11-11T06:13:51.866112",
    "MEAN_MOTION": 14.98335603,
    "ECCENTRICITY": 0.0003456,
    "INCLINATION": 69.9978,
    "RA_OF_ASC_NODE": 303.0158,
    "ARG_OF_PERICENTER": 269.768,
    "MEAN_ANOMALY": 90.3083,
    "EPHEMERIS_TYPE": 0,
    "CLASSIFICATION_TYPE": "U",
    "NORAD_CAT_ID": 55319,
    "ELEMENT_SET_NO": 999,
    "REV_AT_EPOCH": 15690,
    "BSTAR": 8.0948e-05,
    "MEAN_MOTION_DOT": 8.73e-06,
    "MEAN_MOTION_DDOT": 0.0,
    "TLE_LINE1": "1 55319U 23010BC  25315.25962808  .00000873  00000+0  80948-4 0  9995",
    "TLE_LINE2": "2 55319  69.9978 303.0158 0003456 269.7680  90.3083 14.98335603156905",
    "COMMENT": "Grouped by shell and plane from TLE"
  },
  {
    "OBJECT_NAME": "STARLINK-6342",
    "OBJECT_ID": "23078D",
    "EPOCH": "2025-11-11T07:14:11.786784",
    "MEAN_MOTION": 14.983329,
    "ECCENTRICITY": 0.0003026,
    "INCLINATION": 69.9982,
    "RA_OF_ASC_NODE": 302.9574,
    "ARG_OF_PERICENTER": 269.6785,
    "MEAN_ANOMALY": 90.4028,
    "EPHEMERIS_TYPE": 0,
    "CLASSIFICATION_TYPE": "U",
    "NORAD_CAT_ID": 56770,
    "ELEMENT_SET_NO": 999,
    "REV_AT_EPOCH": 13445,
    "BSTAR": 3.1624999999999996e-05,
    "MEAN_MOTION_DOT": 2.84e-06,
    "MEAN_MOTION_DDOT": 0.0,
    "TLE_LINE1": "1 56770U 23078D   25315.30152531  .00000284  00000+0  31625-4 0  9995",
    "TLE_LINE2": "2 56770  69.9982 302.9574 0003026 269.6785  90.4028 14.98332900134453",
    "COMMENT": "Grouped by shell and plane from TLE"
  },
  {
    "OBJECT_NAME": "STARLINK-6275",
    "OBJECT_ID": "23078F",
    "EPOCH": "2025-11-11T07:07:56.979264",
    "MEAN_MOTION": 14.98323772,
    "ECCENTRICITY": 0.0002945,
    "INCLINATION": 69.9981,
    "RA_OF_ASC_NODE": 302.9408,
    "ARG_OF_PERICENTER": 270.7611,
    "MEAN_ANOMALY": 89.321,
    "EPHEMERIS_TYPE": 0,
    "CLASSIFICATION_TYPE": "U",
    "NORAD_CAT_ID": 56772,
    "ELEMENT_SET_NO": 999,
    "REV_AT_EPOCH": 13445,
    "BSTAR": 0.0,
    "MEAN_MOTION_DOT": -9.6e-07,
    "MEAN_MOTION_DDOT": 0.0,
    "TLE_LINE1": "1 56772U 23078F   25315.29718726 -.00000096  00000+0 -27335-6 0  9997",
    "TLE_LINE2": "2 56772  69.9981 302.9408 0002945 270.7611  89.3210 14.98323772134457",
    "COMMENT": "Grouped by shell and plane from TLE"
  },
  {
    "OBJECT_NAME": "STARLINK-6190",
    "OBJECT_ID": "23078H",
    "EPOCH": "2025-11-11T06:01:51.618432",
    "MEAN_MOTION": 14.98335991,
    "ECCENTRICITY": 0.0003408,
    "INCLINATION": 69.9981,
    "RA_OF_ASC_NODE": 303.178,
    "ARG_OF_PERICENTER": 268.8705,
    "MEAN_ANOMALY": 91.2064,
    "EPHEMERIS_TYPE": 0,
    "CLASSIFICATION_TYPE": "U",
    "NORAD_CAT_ID": 56774,
    "ELEMENT_SET_NO": 999,
    "REV_AT_EPOCH": 13444,
    "BSTAR": 6.045700000000001e-05,
    "MEAN_MOTION_DOT": 6.28e-06,
    "MEAN_MOTION_DDOT": 0.0,
    "TLE_LINE1": "1 56774U 23078H   25315.25129188  .00000628  00000+0  60457-4 0  9992",
    "TLE_LINE2": "2 56774  69.9981 303.1780 0003408 268.8705  91.2064 14.98335991134446",
    "COMMENT": "Grouped by shell and plane from TLE"
  },
  {
    "OBJECT_NAME": "STARLINK-6315",
    "OBJECT_ID": "23094U",
    "EPOCH": "2025-11-11T00:38:48.916320",
    "MEAN_MOTION": 15.0254672,
    "ECCENTRICITY": 0.0001357,
    "INCLINATION": 43.0066,
    "RA_OF_ASC_NODE": 302.6574,
    "ARG_OF_PERICENTER": 265.6248,
    "MEAN_ANOMALY": 94.4439,
    "EPHEMERIS_TYPE": 0,
    "CLASSIFICATION_TYPE": "U",
    "NORAD_CAT_ID": 57236,
    "ELEMENT_SET_NO": 999,
    "REV_AT_EPOCH": 12941,
    "BSTAR": 0.0,
    "MEAN_MOTION_DOT": -6.99e-06,
    "MEAN_MOTION_DDOT": 0.0,
    "TLE_LINE1": "1 57236U 23094U   25315.02695505 -.00000699  00000+0 -36683-4 0  9994",
    "TLE_LINE2": "2 57236  43.0066 302.6574 0001357 265.6248  94.4439 15.02546720129412",
    "COMMENT": "Grouped by shell and plane from TLE"
  },
  {
    "OBJECT_NAME": "STARLINK-6334",
    "OBJECT_ID": "23094W",
    "EPOCH": "2025-11-11T00:27:38.143008",
    "MEAN_MOTION": 15.02539818,
    "ECCENTRICITY": 0.0001168,
    "INCLINATION": 43.0045,
    "RA_OF_ASC_NODE": 302.5937,
    "ARG_OF_PERICENTER": 256.8154,
    "MEAN_ANOMALY": 103.2558,
    "EPHEMERIS_TYPE": 0,
    "CLASSIFICATION_TYPE": "U",
    "NORAD_CAT_ID": 57238,
    "ELEMENT_SET_NO": 999,
    "REV_AT_EPOCH": 12941,
    "BSTAR": 2.7934e-05,
    "MEAN_MOTION_DOT": 1.74e-06,
    "MEAN_MOTION_DDOT": 0.0,
    "TLE_LINE1": "1 57238U 23094W   25315.01919147  .00000174  00000+0  27934-4 0  9991",
    "TLE_LINE2": "2 57238  43.0045 302.5937 0001168 256.8154 103.2558 15.02539818129412",
    "COMMENT": "Grouped by shell and plane from TLE"
  },
  {
    "OBJECT_NAME": "STARLINK-6351",
    "OBJECT_ID": "23094Y",
    "EPOCH": "2025-11-11T06:37:46.371360",
    "MEAN_MOTION": 15.02541145,
    "ECCENTRICITY": 0.0001434,
    "INCLINATION": 43.0045,
    "RA_OF_ASC_NODE": 301.0802,
    "ARG_OF_PERICENTER": 277.016,
    "MEAN_ANOMALY": 83.0519,
    "EPHEMERIS_TYPE": 0,
    "CLASSIFICATION_TYPE": "U",
    "NORAD_CAT_ID": 57240,
    "ELEMENT_SET_NO": 999,
    "REV_AT_EPOCH": 12945,
    "BSTAR": 0.00010798,
    "MEAN_MOTION_DOT": 1.255e-05,
    "MEAN_MOTION_DDOT": 0.0,
    "TLE_LINE1": "1 57240U 23094Y   25315.27623115  .00001255  00000+0  10798-3 0  9999",
    "TLE_LINE2": "2 57240  43.0045 301.0802 0001434 277.0160  83.0519 15.02541145129450",
    "COMMENT": "Grouped by shell and plane from TLE"
  },
  {
    "OBJECT_NAME": "STARLINK-6349",
    "OBJECT_ID": "23094Z",
    "EPOCH": "2025-11-11T00:34:01.704576",
    "MEAN_MOTION": 15.02536987,
    "ECCENTRICITY": 0.0001183,
    "INCLINATION": 43.0052,
    "RA_OF_ASC_NODE": 302.6304,
    "ARG_OF_PERICENTER": 271.4118,
    "MEAN_ANOMALY": 88.6589,
    "EPHEMERIS_TYPE": 0,
    "CLASSIFICATION_TYPE": "U",
    "NORAD_CAT_ID": 57241,
    "ELEMENT_SET_NO": 999,
    "REV_AT_EPOCH": 12941,
    "BSTAR": 4.0967e-05,
    "MEAN_MOTION_DOT": 3.5e-06,
    "MEAN_MOTION_DDOT": 0.0,
    "TLE_LINE1": "1 57241U 23094Z   25315.02363084  .00000350  00000+0  40967-4 0  9996",
    "TLE_LINE2": "2 57241  43.0052 302.6304 0001183 271.4118  88.6589 15.02536987129417",
    "COMMENT": "Grouped by shell and plane from TLE"
  },
  {
    "OBJECT_NAME": "STARLINK-6306",
    "OBJECT_ID": "23094AA",
    "EPOCH": "2025-11-11T06:52:07.701600",
    "MEAN_MOTION": 15.02547056,
    "ECCENTRICITY": 0.0001179,
    "INCLINATION": 43.0043,
    "RA_OF_ASC_NODE": 301.1571,
    "ARG_OF_PERICENTER": 269.8427,
    "MEAN_ANOMALY": 90.2281,
    "EPHEMERIS_TYPE": 0,
    "CLASSIFICATION_TYPE": "U",
    "NORAD_CAT_ID": 57242,
    "ELEMENT_SET_NO": 999,
    "REV_AT_EPOCH": 12945,
    "BSTAR": 0.00012351,
    "MEAN_MOTION_DOT": 1.466e-05,
    "MEAN_MOTION_DDOT": 0.0,
    "TLE_LINE1": "1 57242U 23094AA  25315.28620025  .00001466  00000+0  12351-3 0  9990",
    "TLE_LINE2": "2 57242  43.0043 301.1571 0001179 269.8427  90.2281 15.02547056129458",
    "COMMENT": "Grouped by shell and plane from TLE"
  }
]